1 40031U 14033X   19172.38397884  .00000208  00000-0  27809-4 0  9999
2 40031  97.9253  95.0874 0015627  47.2336 313.0193 14.89439326271755
1 40031U 14033X   19172.78706187  .00000222  00000-0  29312-4 0  9990
2 40031  97.9253  95.4912 0015602  45.9673 314.2826 14.89439544271314
1 40031U 14033X   19173.39168634  .00000236  00000-0  30799-4 0  9993
2 40031  97.9252  96.0968 0015562  44.1052 316.1404 14.89439788271906
1 40031U 14033X   19173.72758874  .00000243  00000-0  31526-4 0  9998
2 40031  97.9252  96.4332 0015540  43.0467 317.1963 14.89439942271452
1 40031U 14033X   19174.73529568  .00000244  00000-0  31581-4 0  9998
2 40031  97.9251  97.4425 0015465  39.9644 320.2708 14.89440328272107
1 40031U 14033X   19175.67582169  .00000228  00000-0  29985-4 0  9995
2 40031  97.9251  98.3845 0015401  37.0978 323.1301 14.89440766271748
1 40031U 14033X   19176.21326493  .00000207  00000-0  27711-4 0  9994
2 40031  97.9251  98.9228 0015366  35.4690 324.7546 14.89441026272325
1 40031U 14033X   19176.61634725  .00000188  00000-0  25750-4 0  9997
2 40031  97.9251  99.3265 0015337  34.2495 325.9708 14.89441201271887
1 40031U 14033X   19177.35533141  .00000150  00000-0  21767-4 0  9992
2 40031  97.9251 100.0667 0015289  32.0132 328.2011 14.89441540272490
1 40031U 14033X   19177.69123322  .00000143  00000-0  20999-4 0  9993
2 40031  97.9251 100.4031 0015271  30.9696 329.2418 14.89441735272041
1 40031U 14033X   19178.76611891  .00000130  00000-0  19671-4 0  9996
2 40031  97.9252 101.4797 0015198  27.6726 332.5297 14.89442321272704
1 40031U 14033X   19179.77382394  .00000146  00000-0  21309-4 0  9999
2 40031  97.9252 102.4891 0015127  24.5199 335.6734 14.89442892272851
1 40031U 14033X   19179.90818459  .00000148  00000-0  21543-4 0  9992
2 40031  97.9253 102.6237 0015116  24.1074 336.0848 14.89442956272373
1 40031U 14033X   19180.84870899  .00000177  00000-0  24611-4 0  9994
2 40031  97.9253 103.5657 0015047  21.1363 339.0472 14.89443449273016
1 40031U 14033X   19181.78923309  .00000204  00000-0  27378-4 0  9997
2 40031  97.9252 104.5077 0014970  18.1309 342.0439 14.89443850272654
1 40031U 14033X   19182.39385551  .00000228  00000-0  29927-4 0  9994
2 40031  97.9252 105.1133 0014913  16.1919 343.9772 14.89444141273246
1 40031U 14033X   19182.72975671  .00000247  00000-0  31980-4 0  9992
2 40031  97.9252 105.4498 0014887  15.0918 345.0740 14.89444386272798
1 40031U 14033X   19183.80464054  .00000243  00000-0  31542-4 0  9990
2 40031  97.9251 106.5264 0014780  11.6421 348.5135 14.89444794273456
1 40031U 14033X   19184.61080306  .00000230  00000-0  30184-4 0  9991
2 40031  97.9250 107.3338 0014706   9.0866 351.0615 14.89445180273078
1 40031U 14033X   19185.01388412  .00000225  00000-0  29607-4 0  9997
2 40031  97.9250 107.7376 0014675   7.7970 352.3472 14.89445452273639
1 40031U 14033X   19185.75286604  .00000198  00000-0  26825-4 0  9996
2 40031  97.9249 108.4777 0014608   5.4431 354.6942 14.89445853273242
1 40031U 14033X   19186.35748744  .00000180  00000-0  24942-4 0  9990
2 40031  97.9249 109.0833 0014552   3.5452 356.5865 14.89446214273834
1 40031U 14033X   19186.76056829  .00000172  00000-0  24083-4 0  9998
2 40031  97.9249 109.4871 0014523   2.2327 357.8952 14.89446461273391
1 40031U 14033X   19187.36518959  .00000148  00000-0  21560-4 0  9992
2 40031  97.9249 110.0927 0014475   0.3136 359.8087 14.89446723273981
1 40031U 14033X   19187.83545051  .00000148  00000-0  21590-4 0  9990
2 40031  97.9249 110.5637 0014443 358.7713   1.3466 14.89446999273558
1 40031U 14033X   19188.37289152  .00000154  00000-0  22199-4 0  9990
2 40031  97.9249 111.1020 0014398 357.0619   3.0511 14.89447312274132
1 40031U 14033X   19188.77597218  .00000168  00000-0  23631-4 0  9996
2 40031  97.9249 111.5057 0014367 355.7303   4.3789 14.89447585273690
1 40031U 14033X   19189.44777318  .00000198  00000-0  26793-4 0  9997
2 40031  97.9249 112.1786 0014315 353.5171   6.5859 14.89448027274299
1 40031U 14033X   19189.64931344  .00000200  00000-0  27046-4 0  9996
2 40031  97.9249 112.3805 0014302 352.8209   7.2801 14.89448118273827
1 40031U 14033X   19190.72419452  .00000251  00000-0  32343-4 0  9990
2 40031  97.9248 113.4571 0014212 349.1798  10.9111 14.89448800274486
1 40031U 14033X   19191.73189506  .00000290  00000-0  36489-4 0  9994
2 40031  97.9248 114.4664 0014124 345.7965  14.2853 14.89449453274137
1 40031U 14033X   19191.73189506  .00000290  00000-0  36489-4 0  9994
2 40031  97.9248 114.4664 0014124 345.7965  14.2853 14.89449453274632
1 40031U 14033X   19193.74729502  .00000225  00000-0  29597-4 0  9993
2 40031  97.9247 116.4850 0013935 338.9880  21.0763 14.89450350274936
1 40031U 14033X   19194.82217428  .00000171  00000-0  23937-4 0  9994
2 40031  97.9248 117.5616 0013845 335.3298  24.7255 14.89450922275092
1 40031U 14033X   19195.82987337  .00000145  00000-0  21197-4 0  9995
2 40031  97.9248 118.5709 0013753 331.9571  28.0904 14.89451530275241
1 40031U 14033X   19196.83757229  .00000152  00000-0  21994-4 0  9995
2 40031  97.9248 119.5802 0013668 328.5114  31.5284 14.89452177274894
1 40031U 14033X   19197.03911204  .00000157  00000-0  22546-4 0  9992
2 40031  97.9248 119.7821 0013650 327.8358  32.2025 14.89452307275426
1 40031U 14033X   19197.84527097  .00000179  00000-0  24813-4 0  9997
2 40031  97.9247 120.5895 0013595 325.0308  35.0015 14.89452795275048
1 40031U 14033X   19198.04681069  .00000185  00000-0  25469-4 0  9995
2 40031  97.9247 120.7914 0013577 324.3395  35.6914 14.89452899275577
1 40031U 14033X   19198.58424988  .00000201  00000-0  27127-4 0  9991
2 40031  97.9247 121.3297 0013543 322.4510  37.5760 14.89453157275151
1 40031U 14033X   19199.05450911  .00000213  00000-0  28368-4 0  9990
2 40031  97.9247 121.8007 0013512 320.7897  39.2340 14.89453363275725
1 40031U 14033X   19199.52476829  .00000223  00000-0  29419-4 0  9997
2 40031  97.9246 122.2717 0013486 319.1171  40.9034 14.89453533275294
1 40031U 14033X   19200.06220726  .00000235  00000-0  30723-4 0  9995
2 40031  97.9246 122.8100 0013451 317.1978  42.8191 14.89453766275878
1 40031U 14033X   19200.59964616  .00000237  00000-0  30868-4 0  9998
2 40031  97.9245 123.3482 0013419 315.2772  44.7362 14.89453945275455
1 40031U 14033X   19201.33862447  .00000234  00000-0  30539-4 0  9992
2 40031  97.9244 124.0884 0013368 312.6300  47.3789 14.89454268276068
1 40031U 14033X   19201.74170344  .00000226  00000-0  29732-4 0  9999
2 40031  97.9244 124.4921 0013345 311.1801  48.8264 14.89454448275624
1 40031U 14033X   19202.34632187  .00000194  00000-0  26423-4 0  9992
2 40031  97.9243 125.0976 0013298 309.0251  50.9781 14.89454652276213
1 40031U 14033X   19202.74940076  .00000176  00000-0  24479-4 0  9994
2 40031  97.9243 125.5013 0013270 307.5858  52.4153 14.89454819275771
1 40031U 14033X   19203.35401897  .00000158  00000-0  22585-4 0  9991
2 40031  97.9243 126.1069 0013222 305.4231  54.5751 14.89455159276369
1 40031U 14033X   19203.82427754  .00000141  00000-0  20853-4 0  9991
2 40031  97.9242 126.5779 0013193 303.7443  56.2516 14.89455391275931
1 40031U 14033X   19204.36171588  .00000134  00000-0  20054-4 0  9997
2 40031  97.9243 127.1161 0013156 301.8481  58.1455 14.89455705276511
1 40031U 14033X   19204.83197443  .00000127  00000-0  19303-4 0  9994
2 40031  97.9243 127.5871 0013132 300.1848  59.8068 14.89455936276082
1 40031U 14033X   19205.36941273  .00000128  00000-0  19422-4 0  9994
2 40031  97.9243 128.1254 0013100 298.2739  61.7155 14.89456225276660
1 40031U 14033X   19205.83967115  .00000141  00000-0  20789-4 0  9992
2 40031  97.9243 128.5963 0013089 296.5815  63.4060 14.89456518276235
1 40031U 14033X   19206.37710936  .00000152  00000-0  21945-4 0  9996
2 40031  97.9244 129.1346 0013062 294.6516  65.3340 14.89456797276811
1 40031U 14033X   19206.84736773  .00000170  00000-0  23842-4 0  9993
2 40031  97.9244 129.6056 0013047 292.9486  67.0354 14.89457061276385
1 40031U 14033X   19207.72070455  .00000204  00000-0  27420-4 0  9993
2 40031  97.9243 130.4803 0013031 289.7806  70.2005 14.89457506276515
1 40031U 14033X   19208.72840068  .00000224  00000-0  29506-4 0  9998
2 40031  97.9243 131.4896 0013020 286.0879  73.8904 14.89457882277162
1 40031U 14033X   19209.73609659  .00000225  00000-0  29662-4 0  9993
2 40031  97.9243 132.4989 0013005 282.3644  77.6117 14.89458217277316
1 40031U 14033X   19210.74379217  .00000206  00000-0  27651-4 0  9995
2 40031  97.9242 133.5081 0012987 278.6527  81.3218 14.89458616277469
1 40031U 14033X   19211.81866730  .00000157  00000-0  22507-4 0  9995
2 40031  97.9241 134.5847 0012940 274.6690  85.3049 14.89459007277624
1 40031U 14033X   19212.82636235  .00000124  00000-0  19069-4 0  9995
2 40031  97.9240 135.5940 0012912 270.9528  89.0210 14.89459513277775
1 40031U 14033X   19213.83405736  .00000127  00000-0  19349-4 0  9991
2 40031  97.9240 136.6033 0012892 267.2654  92.7087 14.89460107277927
1 40031U 14033X   19214.84175223  .00000150  00000-0  21789-4 0  9995
2 40031  97.9240 137.6125 0012887 263.5885  96.3864 14.89460700277572
1 40031U 14033X   19214.84175223  .00000150  00000-0  21789-4 0  9995
2 40031  97.9240 137.6125 0012887 263.5885  96.3864 14.89460700278078
1 40031U 14033X   19215.84944691  .00000196  00000-0  26619-4 0  9996
2 40031  97.9239 138.6218 0012892 259.9074 100.0689 14.89461313277725
1 40031U 14033X   19215.84944691  .00000196  00000-0  26619-4 0  9996
2 40031  97.9239 138.6218 0012892 259.9074 100.0689 14.89461313278221
1 40031U 14033X   19216.85714132  .00000247  00000-0  31937-4 0  9999
2 40031  97.9239 139.6311 0012914 256.2284 103.7495 14.89461879277876
1 40031U 14033X   19216.85714132  .00000247  00000-0  31937-4 0  9999
2 40031  97.9239 139.6311 0012914 256.2284 103.7495 14.89461879278372
1 40031U 14033X   19217.86483519  .00000316  00000-0  39190-4 0  9999
2 40031  97.9238 140.6404 0012948 252.5449 107.4353 14.89462636278023
1 40031U 14033X   19218.20073308  .00000332  00000-0  40906-4 0  9994
2 40031  97.9238 140.9768 0012959 251.3046 108.6765 14.89462876278577
